<?xml version="1.0" ?>
<kml xmlns="http://www.opengis.net/kml/2.2">
  <Document>
    <name>CYYT Ground Network</name>
    <Style id="runway">
      <LineStyle>
        <color>ff0000ff</color>
        <width>4</width>
      </LineStyle>
    </Style>
    <Style id="taxiway">
      <LineStyle>
        <color>ff00ffff</color>
        <width>2</width>
      </LineStyle>
    </Style>
    <Style id="apron">
      <LineStyle>
        <color>ff808080</color>
        <width>1</width>
      </LineStyle>
    </Style>
    <Style id="parking">
      <IconStyle>
        <scale>0.5</scale>
        <color>ff00ff00</color>
      </IconStyle>
    </Style>
    <Style id="gate">
      <IconStyle>
        <scale>0.5</scale>
        <color>ff0000ff</color>
      </IconStyle>
    </Style>
    <Style id="holding">
      <IconStyle>
        <scale>0.4</scale>
        <color>ffff00ff</color>
      </IconStyle>
    </Style>
    <Folder>
      <name>Runways</name>
      <Placemark>
        <name>10/28</name>
        <description>length: 2591
surface: asphalt
width: 61</description>
        <styleUrl>#runway</styleUrl>
        <LineString>
          <coordinates>-52.7715877,47.6236289,0 -52.7714835,47.6236339,0 -52.7701261,47.6236997,0 -52.769523,47.6237289,0 -52.7541623,47.6244746,0 -52.7505873,47.624646,0 -52.7503468,47.6246576,0 -52.7495144,47.6246963,0 -52.7482002,47.6247612,0 -52.7406565,47.6251078,0 -52.7398435,47.6251467,0 -52.7394553,47.6251652,0 -52.7393296,47.6251712,0 -52.737291,47.6252775,0</coordinates>
        </LineString>
      </Placemark>
      <Placemark>
        <name>16/34</name>
        <description>length: 2135
surface: asphalt
width: 61</description>
        <styleUrl>#runway</styleUrl>
        <LineString>
          <coordinates>-52.7518953,47.6258633,0 -52.7503468,47.6246576,0 -52.7502423,47.6245762,0 -52.7498541,47.6242739,0 -52.7488798,47.6235149,0 -52.7463031,47.6215089,0 -52.7462955,47.621503,0 -52.7460087,47.6212796,0 -52.7456734,47.6210185,0 -52.7407578,47.6171906,0 -52.7393466,47.6160916,0 -52.7391267,47.6159203,0 -52.7385097,47.6154297,0 -52.738501,47.6154228,0 -52.7338891,47.6118412,0 -52.7332991,47.6113817,0</coordinates>
        </LineString>
      </Placemark>
    </Folder>
    <Folder>
      <name>Taxiways</name>
      <Placemark>
        <name>C</name>
        <styleUrl>#taxiway</styleUrl>
        <LineString>
          <coordinates>-52.7391267,47.6159203,0 -52.7389703,47.6158341,0 -52.7389081,47.6158104,0 -52.7388176,47.6157965,0 -52.7387157,47.6157921,0 -52.7386533,47.615797,0 -52.7386053,47.6158072,0 -52.7384983,47.6158532,0 -52.7384633,47.6158715,0 -52.738034,47.6160348,0 -52.7379969,47.6160489,0 -52.737464,47.6162549,0 -52.7373728,47.6162964,0 -52.7372941,47.6163346,0 -52.7372163,47.6163797,0 -52.7371456,47.6164272,0 -52.7370789,47.6164785,0 -52.7370412,47.6165156,0 -52.7369743,47.6165812,0 -52.7369489,47.6166021,0 -52.7368893,47.6166707,0 -52.7368144,47.6167536,0 -52.7367579,47.6168223,0 -52.7367431,47.6168644,0 -52.7367405,47.6168992,0 -52.7367414,47.616936,0 -52.7367973,47.6175265,0</coordinates>
        </LineString>
      </Placemark>
      <Placemark>
        <name>M</name>
        <description>length: 1532.5
surface: asphalt
width: 30.5</description>
        <styleUrl>#taxiway</styleUrl>
        <LineString>
          <coordinates>-52.7381344,47.6116941,0 -52.7382194,47.6124433,0 -52.7382941,47.6133186,0 -52.7383512,47.6139051,0 -52.738501,47.6154228,0 -52.7385881,47.6162181,0 -52.7385968,47.6162978,0 -52.7386645,47.6169868,0 -52.7392716,47.6232323,0 -52.7392861,47.6234063,0 -52.7393404,47.6239586,0 -52.7393967,47.6245309,0 -52.7393994,47.6245582,0 -52.7394045,47.6246096,0 -52.7394414,47.6249141,0 -52.7394367,47.6249635,0 -52.7394162,47.6250083,0 -52.7393854,47.6250505,0 -52.7393285,47.625101,0 -52.739279,47.6251339,0 -52.7392175,47.6251598,0 -52.7391224,47.6251811,0</coordinates>
        </LineString>
      </Placemark>
      <Placemark>
        <styleUrl>#taxiway</styleUrl>
        <LineString>
          <coordinates>-52.7345006,47.6213381,0 -52.7344966,47.6212208,0 -52.7345243,47.6211502,0 -52.7345638,47.6210862,0 -52.7346093,47.6210303,0 -52.7346765,47.6209903,0 -52.7347754,47.6209556,0 -52.7349296,47.620945,0 -52.735847,47.6209037,0 -52.7367069,47.6208639,0 -52.7367962,47.6208721,0 -52.7368603,47.6208876,0 -52.7369196,47.6209105,0 -52.7369991,47.6209542,0 -52.7370513,47.6210034,0 -52.7370799,47.6210445,0 -52.7370919,47.6210837,0 -52.7370975,47.6211229,0</coordinates>
        </LineString>
      </Placemark>
      <Placemark>
        <name>B</name>
        <styleUrl>#taxiway</styleUrl>
        <LineString>
          <coordinates>-52.7394045,47.6246096,0 -52.7393994,47.6245582,0 -52.7393967,47.6245309,0 -52.7393571,47.6244884,0 -52.73933,47.6244669,0 -52.7392875,47.6244353,0 -52.7392251,47.6243935,0 -52.7388208,47.6241316,0 -52.7375276,47.6232837,0 -52.7374988,47.6232615,0 -52.7374791,47.6232457,0 -52.7374353,47.6232092,0 -52.73739,47.6231689,0</coordinates>
        </LineString>
      </Placemark>
      <Placemark>
        <styleUrl>#taxiway</styleUrl>
        <LineString>
          <coordinates>-52.74688,47.6194395,0 -52.7469299,47.6194694,0 -52.7469869,47.6194958,0 -52.7470394,47.6195139,0 -52.7470825,47.6195221,0 -52.7471404,47.6195285,0 -52.7471972,47.619528,0 -52.74725,47.6195225,0 -52.7472964,47.6195144,0 -52.7473469,47.6195017,0 -52.7474196,47.619472,0</coordinates>
        </LineString>
      </Placemark>
      <Placemark>
        <styleUrl>#taxiway</styleUrl>
        <LineString>
          <coordinates>-52.743419,47.6152422,0 -52.7434867,47.6151838,0 -52.7435344,47.6151217,0 -52.7435592,47.6150675,0 -52.7435752,47.6150223,0 -52.7435731,47.6149648,0 -52.7435663,47.614912,0 -52.7435472,47.614851,0</coordinates>
        </LineString>
      </Placemark>
      <Placemark>
        <styleUrl>#taxiway</styleUrl>
        <LineString>
          <coordinates>-52.7407646,47.6167853,0 -52.7407098,47.6168283,0 -52.7406899,47.6168526,0 -52.7406793,47.6168656,0 -52.7406701,47.6168791,0 -52.7406545,47.6169108,0 -52.7406462,47.6169376,0 -52.7406403,47.6169683,0 -52.7406404,47.616994,0 -52.740646,47.6170257,0 -52.7406555,47.6170541,0 -52.7406735,47.6170876,0 -52.7406885,47.6171088,0 -52.7407092,47.6171327,0 -52.7407235,47.6171559,0 -52.7407578,47.6171906,0</coordinates>
        </LineString>
      </Placemark>
      <Placemark>
        <styleUrl>#taxiway</styleUrl>
        <LineString>
          <coordinates>-52.7478918,47.6198476,0 -52.7480796,47.6197393,0</coordinates>
        </LineString>
      </Placemark>
      <Placemark>
        <name>H</name>
        <styleUrl>#taxiway</styleUrl>
        <LineString>
          <coordinates>-52.7425645,47.6160902,0 -52.7425425,47.6160784,0 -52.7425227,47.616067,0 -52.7424857,47.6160462,0 -52.7424479,47.61603,0 -52.7424089,47.6160164,0 -52.7423704,47.6160069,0 -52.7423232,47.6159993,0 -52.7422812,47.6159964,0 -52.7422328,47.6159951,0 -52.7421962,47.6159976,0 -52.7421464,47.6160051,0 -52.7421066,47.6160142,0 -52.7420621,47.6160275,0 -52.7420282,47.6160398,0</coordinates>
        </LineString>
      </Placemark>
      <Placemark>
        <styleUrl>#taxiway</styleUrl>
        <LineString>
          <coordinates>-52.7388208,47.6241316,0 -52.738839,47.6241354,0 -52.7389003,47.6241532,0 -52.7389521,47.6241636,0 -52.739005,47.6241674,0 -52.7390566,47.6241664,0 -52.7391024,47.6241586,0 -52.7391447,47.6241491,0 -52.7391795,47.6241361,0 -52.7392174,47.6241191,0 -52.739247,47.6241003,0 -52.7392767,47.6240761,0 -52.7393062,47.6240474,0 -52.7393254,47.6240105,0 -52.7393404,47.6239586,0</coordinates>
        </LineString>
      </Placemark>
      <Placemark>
        <styleUrl>#taxiway</styleUrl>
        <LineString>
          <coordinates>-52.7382941,47.6133186,0 -52.7382723,47.6128564,0 -52.7382718,47.6128277,0 -52.7382768,47.612799,0 -52.7383049,47.6127507,0 -52.7383348,47.6127159,0 -52.7383683,47.6126849,0 -52.7384171,47.6126568,0 -52.7384634,47.6126353,0 -52.7385156,47.61262,0 -52.7385562,47.6126112,0 -52.7385979,47.6126027,0 -52.7386459,47.6125988,0 -52.7386948,47.6125999,0 -52.7387485,47.612605,0 -52.7388463,47.6126255,0 -52.7393782,47.6127806,0</coordinates>
        </LineString>
      </Placemark>
      <Placemark>
        <styleUrl>#taxiway</styleUrl>
        <LineString>
          <coordinates>-52.7496221,47.6194878,0 -52.7496858,47.6194387,0 -52.7497104,47.6194056,0 -52.7497296,47.6193716,0 -52.7497395,47.6193324,0 -52.7497454,47.6192908,0 -52.7497454,47.6192541,0 -52.7497338,47.6192204,0 -52.7497197,47.6191915,0 -52.7496972,47.6191639,0 -52.7496821,47.6191479,0 -52.7496495,47.6191158,0</coordinates>
        </LineString>
      </Placemark>
      <Placemark>
        <styleUrl>#taxiway</styleUrl>
        <LineString>
          <coordinates>-52.7487346,47.6184009,0 -52.7487607,47.6184395,0 -52.7487684,47.6184545,0 -52.7487752,47.6184702,0 -52.748783,47.6184908,0 -52.7487877,47.618508,0 -52.7487907,47.6185227,0 -52.7487914,47.6185438,0 -52.7487908,47.6185618,0 -52.7487857,47.6185908,0 -52.74878,47.6186084,0 -52.7487689,47.6186379,0 -52.7487492,47.6186667,0 -52.7487225,47.6186956,0 -52.7486926,47.6187203,0 -52.748659,47.6187435,0 -52.7484804,47.6188482,0</coordinates>
        </LineString>
      </Placemark>
      <Placemark>
        <styleUrl>#taxiway</styleUrl>
        <LineString>
          <coordinates>-52.7367069,47.6208639,0 -52.7367776,47.6208524,0 -52.7368792,47.6208172,0 -52.7369401,47.620781,0 -52.7369919,47.620734,0 -52.737025,47.6206841,0 -52.7370423,47.6206372,0 -52.737043,47.620569,0</coordinates>
        </LineString>
      </Placemark>
      <Placemark>
        <styleUrl>#taxiway</styleUrl>
        <LineString>
          <coordinates>-52.7435472,47.614851,0 -52.7435404,47.6148114,0 -52.7435429,47.6147745,0 -52.7435525,47.6147301,0</coordinates>
        </LineString>
      </Placemark>
      <Placemark>
        <styleUrl>#taxiway</styleUrl>
        <LineString>
          <coordinates>-52.7494227,47.6189324,0 -52.7494801,47.6189991,0 -52.7495041,47.6190456,0 -52.7495144,47.6190922,0 -52.7495106,47.6191327,0 -52.7495034,47.6191611,0 -52.7494867,47.6192018,0 -52.7494665,47.6192343,0 -52.7494456,47.6192645,0 -52.7495289,47.6192237,0 -52.7495942,47.6192053,0 -52.7496595,47.6191966,0 -52.7497197,47.6191915,0 -52.7497522,47.6191898,0 -52.7498283,47.6191941,0</coordinates>
        </LineString>
      </Placemark>
      <Placemark>
        <styleUrl>#taxiway</styleUrl>
        <LineString>
          <coordinates>-52.7475821,47.6203596,0 -52.7476383,47.6203005,0 -52.7476584,47.620277,0 -52.7476745,47.6202494,0 -52.7476847,47.6202216,0 -52.7476876,47.6201958,0 -52.7476843,47.6201597,0 -52.7476783,47.620124,0 -52.7476331,47.6200521,0 -52.7475995,47.6200104,0</coordinates>
        </LineString>
      </Placemark>
      <Placemark>
        <styleUrl>#taxiway</styleUrl>
        <LineString>
          <coordinates>-52.75251,47.6179576,0 -52.7525742,47.617908,0 -52.7526044,47.6178731,0 -52.7526227,47.6178349,0 -52.7526259,47.6177995,0 -52.7526191,47.6177643,0 -52.7526081,47.6177373,0 -52.7525741,47.617694,0 -52.7523491,47.6174952,0 -52.7523366,47.6174734,0 -52.7523298,47.6174491,0 -52.7523325,47.6174242,0 -52.7523481,47.6173961,0 -52.7523813,47.6173679,0 -52.7530204,47.6170404,0 -52.7530675,47.6170321,0 -52.7531004,47.6170329,0 -52.7531526,47.6170409,0 -52.7532009,47.6170543,0 -52.75325,47.617094,0 -52.7535089,47.6173223,0 -52.7535249,47.6173502,0 -52.7535287,47.617387,0 -52.7535209,47.6174116,0 -52.7534876,47.6174563,0</coordinates>
        </LineString>
      </Placemark>
      <Placemark>
        <name>D</name>
        <description>surface: asphalt
width: 23</description>
        <styleUrl>#taxiway</styleUrl>
        <LineString>
          <coordinates>-52.7388463,47.6126255,0 -52.7382194,47.6124433,0 -52.7368195,47.6119063,0 -52.7356117,47.6114618,0 -52.7356072,47.6114602,0 -52.7346452,47.6111091,0 -52.7345535,47.6110924,0 -52.734506,47.6110877,0 -52.7344586,47.611085,0 -52.7343951,47.6110883,0 -52.7343022,47.6111019,0 -52.7342274,47.6111214,0 -52.7341502,47.6111497,0 -52.7340887,47.6111795,0 -52.7340318,47.6112113,0 -52.7339489,47.6112688,0 -52.7338714,47.6113278,0 -52.7338325,47.6113723,0 -52.7338014,47.6114199,0 -52.7337762,47.6114711,0 -52.7337684,47.6115032,0 -52.7337628,47.6115367,0 -52.7337614,47.6115807,0 -52.7337708,47.6116377,0 -52.7337928,47.6116926,0 -52.7338229,47.6117421,0 -52.7338474,47.6117881,0 -52.7338891,47.6118412,0</coordinates>
        </LineString>
      </Placemark>
      <Placemark>
        <name>D</name>
        <description>surface: asphalt
width: 23</description>
        <styleUrl>#taxiway</styleUrl>
        <LineString>
          <coordinates>-52.7393782,47.6127806,0 -52.7388463,47.6126255,0</coordinates>
        </LineString>
      </Placemark>
      <Placemark>
        <name>G</name>
        <styleUrl>#taxiway</styleUrl>
        <LineString>
          <coordinates>-52.7441684,47.6148987,0 -52.7440652,47.6148992,0 -52.7439955,47.6149122,0 -52.7438899,47.6149526,0 -52.7437279,47.6150512,0 -52.743419,47.6152422,0</coordinates>
        </LineString>
      </Placemark>
      <Placemark>
        <styleUrl>#taxiway</styleUrl>
        <LineString>
          <coordinates>-52.7407646,47.6167853,0 -52.7406942,47.6168154,0 -52.7406538,47.6168254,0 -52.740609,47.6168358,0 -52.7405562,47.6168421,0 -52.7405218,47.6168428,0 -52.7404776,47.6168423,0 -52.7404386,47.616838,0 -52.7404172,47.6168346,0 -52.7403958,47.6168298,0 -52.7403568,47.6168208,0 -52.740322,47.6168085,0 -52.74028,47.6167905,0 -52.7402595,47.61678,0 -52.7402416,47.6167686,0 -52.7402134,47.6167541,0 -52.7401549,47.6167158,0</coordinates>
        </LineString>
      </Placemark>
      <Placemark>
        <styleUrl>#taxiway</styleUrl>
        <LineString>
          <coordinates>-52.7505496,47.6189691,0 -52.7501921,47.6191529,0 -52.7500516,47.6192266,0 -52.7499708,47.6192741,0 -52.7498297,47.6193553,0 -52.7496221,47.6194878,0 -52.7494445,47.6195986,0</coordinates>
        </LineString>
      </Placemark>
      <Placemark>
        <styleUrl>#taxiway</styleUrl>
        <LineString>
          <coordinates>-52.7476847,47.6202994,0 -52.7477382,47.6202817,0 -52.7477667,47.620272,0 -52.7477964,47.620265,0 -52.747826,47.6202599,0 -52.7478524,47.6202576,0 -52.7478868,47.6202543,0 -52.7479859,47.6202579,0</coordinates>
        </LineString>
      </Placemark>
      <Placemark>
        <styleUrl>#taxiway</styleUrl>
        <LineString>
          <coordinates>-52.7483354,47.619915,0 -52.7481256,47.6200346,0 -52.7478533,47.6201988,0 -52.7476847,47.6202994,0 -52.7475821,47.6203596,0 -52.7472093,47.6205822,0</coordinates>
        </LineString>
      </Placemark>
      <Placemark>
        <name>Apron II Taxilane</name>
        <description>access: no
bicycle: no
foot: no
horse: no
maxspeed: 25
motor_vehicle: private</description>
        <styleUrl>#taxiway</styleUrl>
        <LineString>
          <coordinates>-52.73739,47.6231689,0 -52.7373778,47.6231559,0 -52.737354,47.6231247,0 -52.7373359,47.6230923,0 -52.7373233,47.6230606,0 -52.7373173,47.6230284,0 -52.7373073,47.6229738,0 -52.7372893,47.6228008,0 -52.7371876,47.6217979,0 -52.7371366,47.6212873,0 -52.7370287,47.619862,0 -52.7367973,47.6175265,0</coordinates>
        </LineString>
      </Placemark>
      <Placemark>
        <name>CDF Perimeter Taxi Line</name>
        <styleUrl>#taxiway</styleUrl>
        <LineString>
          <coordinates>-52.7501921,47.6191529,0 -52.7500928,47.6191907,0 -52.7500535,47.6191981,0 -52.7500273,47.6192028,0 -52.7499961,47.619204,0 -52.7499694,47.6192052,0 -52.7499414,47.619206,0 -52.7499137,47.6192056,0 -52.7498886,47.6192033,0 -52.7498667,47.619201,0 -52.7498458,47.6191972,0 -52.7498283,47.6191941,0 -52.7497868,47.6191838,0 -52.7497567,47.6191736,0 -52.7497178,47.6191573,0 -52.7496813,47.619139,0 -52.7496495,47.6191158,0 -52.7494227,47.6189324,0 -52.7491897,47.618752,0 -52.7487346,47.6184009,0 -52.7484466,47.6181865,0 -52.7483835,47.6181631,0 -52.748322,47.618148,0 -52.7482568,47.6181377,0 -52.7481927,47.6181369,0 -52.7481589,47.6181379,0 -52.7481246,47.6181421,0 -52.7480969,47.6181472,0 -52.7480703,47.6181543,0 -52.7480461,47.6181619,0 -52.7480229,47.61817,0 -52.7479984,47.6181807,0 -52.7479709,47.6181941,0 -52.7479454,47.6182079,0 -52.747911,47.6182275,0 -52.7469065,47.6188147,0 -52.7467791,47.618891,0 -52.7467172,47.6189284,0</coordinates>
        </LineString>
      </Placemark>
      <Placemark>
        <styleUrl>#taxiway</styleUrl>
        <LineString>
          <coordinates>-52.7467172,47.6189284,0 -52.7466621,47.6189762,0 -52.7466409,47.6190019,0 -52.7466232,47.6190281,0 -52.7466109,47.6190651,0 -52.7466022,47.6190952,0 -52.7466015,47.6191302,0 -52.7466035,47.619161,0 -52.7466139,47.6191927,0 -52.7466297,47.6192221,0 -52.7466666,47.6192707,0</coordinates>
        </LineString>
      </Placemark>
      <Placemark>
        <description>surface: asphalt</description>
        <styleUrl>#taxiway</styleUrl>
        <LineString>
          <coordinates>-52.7538667,47.616365,0 -52.7536723,47.6164671,0 -52.7536434,47.6164831,0 -52.7535895,47.616513,0 -52.753558,47.6165377,0 -52.7535395,47.6165648,0 -52.7535279,47.6165939,0 -52.7535305,47.6166267,0 -52.753545,47.6166558,0 -52.7535643,47.6166787,0 -52.7536028,47.616712,0 -52.753761,47.6168491,0 -52.7539814,47.6170402,0 -52.7540044,47.6170688,0 -52.7540196,47.6170958,0 -52.7540261,47.617125,0 -52.7540161,47.6171627,0 -52.7539878,47.6171984,0 -52.7543053,47.6170375,0 -52.7543161,47.6170227,0 -52.7543281,47.6170007,0 -52.7543305,47.6169786,0 -52.7543295,47.6169468,0 -52.7543233,47.6169237,0 -52.7543081,47.616901,0 -52.7538588,47.6165099,0 -52.7538366,47.6164832,0 -52.7538302,47.6164465,0 -52.7538359,47.6164065,0 -52.7538667,47.616365,0 -52.75399,47.6163036,0 -52.7540307,47.616277,0 -52.754061,47.6162458,0 -52.7542784,47.6158829,0 -52.7542981,47.6158533,0 -52.7543179,47.6158268,0 -52.7543382,47.6158095,0 -52.7546384,47.6156516,0 -52.754782,47.61558,0 -52.7550788,47.6154264,0 -52.755177,47.615379,0 -52.7554965,47.6152129,0 -52.7556232,47.6151492,0 -52.7559017,47.6150025,0 -52.7559449,47.61499,0 -52.75599,47.614984,0 -52.756031,47.6149867,0 -52.756078,47.6149973,0 -52.7561096,47.615013,0 -52.7562188,47.6151117,0 -52.7562313,47.6151329,0 -52.756235,47.6151528,0 -52.7562326,47.6151776,0 -52.7562242,47.6152005,0 -52.7562092,47.6152232,0 -52.7561883,47.6152432,0 -52.7560993,47.6152834,0 -52.7560668,47.6152907,0 -52.7560341,47.6152897,0 -52.7559989,47.6152892,0 -52.7559736,47.6152827,0 -52.7559287,47.615265,0 -52.7558966,47.6152437,0 -52.7558061,47.6151688,0 -52.7557702,47.6151539,0 -52.7557341,47.6151435,0 -52.7556996,47.6151389,0 -52.7556649,47.6151423,0 -52.7556232,47.6151492,0</coordinates>
        </LineString>
      </Placemark>
      <Placemark>
        <name>K</name>
        <description>surface: asphalt</description>
        <styleUrl>#taxiway</styleUrl>
        <LineString>
          <coordinates>-52.7539878,47.6171984,0 -52.7534876,47.6174563,0 -52.75251,47.6179576,0 -52.7513089,47.6185793,0 -52.7505496,47.6189691,0</coordinates>
        </LineString>
      </Placemark>
      <Placemark>
        <styleUrl>#taxiway</styleUrl>
        <LineString>
          <coordinates>-52.7467172,47.6189284,0 -52.7466374,47.6189567,0 -52.7465789,47.6189678,0 -52.7465376,47.6189743,0 -52.7464795,47.6189798,0 -52.7464217,47.6189759,0 -52.7463686,47.6189667,0 -52.7462577,47.6189382,0 -52.7461853,47.6188971,0</coordinates>
        </LineString>
      </Placemark>
      <Placemark>
        <styleUrl>#taxiway</styleUrl>
        <LineString>
          <coordinates>-52.7485729,47.620104,0 -52.7484703,47.620162,0 -52.748427,47.6201878,0 -52.7484018,47.6202036,0 -52.7483741,47.6202186,0 -52.7483558,47.6202258,0 -52.7483273,47.6202377,0 -52.7482968,47.6202504,0 -52.7482583,47.6202582,0 -52.7482285,47.6202652,0 -52.7481923,47.6202701,0 -52.7481654,47.6202723,0 -52.7481398,47.6202735,0 -52.748105,47.6202718,0 -52.7480689,47.6202702,0 -52.7480253,47.6202661,0 -52.7479859,47.6202579,0 -52.7479392,47.6202403,0 -52.7479274,47.6202359,0 -52.747913,47.6202305,0 -52.7478988,47.6202249,0 -52.7478874,47.6202194,0 -52.7478731,47.6202125,0 -52.7478533,47.6201988,0 -52.7476794,47.6200714,0 -52.7475995,47.6200104,0 -52.7473897,47.6198388,0 -52.74688,47.6194395,0 -52.7466666,47.6192707,0 -52.7461853,47.6188971,0 -52.7457574,47.6185742,0</coordinates>
        </LineString>
      </Placemark>
      <Placemark>
        <styleUrl>#taxiway</styleUrl>
        <LineString>
          <coordinates>-52.7456734,47.6210185,0 -52.7457347,47.6210589,0 -52.7457578,47.6210738,0 -52.7457747,47.6210853,0 -52.7457894,47.621093,0 -52.745807,47.6211006,0 -52.7458321,47.6211131,0 -52.7458647,47.6211258,0 -52.7459005,47.6211368,0 -52.7459292,47.621145,0 -52.7459508,47.6211499,0 -52.7459754,47.6211544,0 -52.7460034,47.6211589,0 -52.7460521,47.6211614,0 -52.7461063,47.6211607,0 -52.7461488,47.6211544,0 -52.7462194,47.6211394,0 -52.7463058,47.6211107,0</coordinates>
        </LineString>
      </Placemark>
      <Placemark>
        <styleUrl>#taxiway</styleUrl>
        <LineString>
          <coordinates>-52.7476783,47.620124,0 -52.7476762,47.6200956,0 -52.7476794,47.6200714,0 -52.7476824,47.6200592,0 -52.7476839,47.6200484,0 -52.7476889,47.6200273,0 -52.7476988,47.6200078,0 -52.7477139,47.6199861,0 -52.7477316,47.6199662,0 -52.7477454,47.619952,0 -52.7477666,47.6199333,0 -52.7477789,47.6199226,0 -52.747813,47.6198977,0 -52.7478918,47.6198476,0</coordinates>
        </LineString>
      </Placemark>
      <Placemark>
        <name>Lead in Line Bay 3</name>
        <styleUrl>#taxiway</styleUrl>
        <LineString>
          <coordinates>-52.7481256,47.6200346,0 -52.748061,47.6200574,0 -52.7480298,47.620066,0 -52.747997,47.6200736,0 -52.7479644,47.6200798,0 -52.7479273,47.6200833,0 -52.7478912,47.6200852,0 -52.7478514,47.6200842,0 -52.7478162,47.6200803,0 -52.7477831,47.6200744,0 -52.7477393,47.6200658,0 -52.7477048,47.6200541,0 -52.7476839,47.6200484,0 -52.7476733,47.6200438,0 -52.7476498,47.6200344,0 -52.7476323,47.6200261,0 -52.7475995,47.6200104,0</coordinates>
        </LineString>
      </Placemark>
      <Placemark>
        <styleUrl>#taxiway</styleUrl>
        <LineString>
          <coordinates>-52.7478918,47.6198476,0 -52.7477884,47.6198853,0 -52.7477316,47.6198972,0 -52.7476741,47.6199033,0 -52.7476138,47.6199047,0 -52.7475493,47.6198962,0 -52.7474994,47.6198848,0 -52.7474606,47.6198724,0 -52.7474362,47.6198622,0 -52.7474135,47.619851,0 -52.7473897,47.6198388,0</coordinates>
        </LineString>
      </Placemark>
      <Placemark>
        <styleUrl>#taxiway</styleUrl>
        <LineString>
          <coordinates>-52.7494456,47.6192645,0 -52.7492033,47.6194108,0</coordinates>
        </LineString>
      </Placemark>
      <Placemark>
        <styleUrl>#taxiway</styleUrl>
        <LineString>
          <coordinates>-52.7474196,47.619472,0 -52.7476206,47.6193564,0</coordinates>
        </LineString>
      </Placemark>
      <Placemark>
        <styleUrl>#taxiway</styleUrl>
        <LineString>
          <coordinates>-52.7491897,47.618752,0 -52.7492384,47.6188077,0 -52.7492562,47.6188453,0 -52.7492659,47.6188738,0 -52.7492732,47.6189047,0 -52.7492726,47.6189363,0 -52.7492676,47.6189586,0 -52.7492595,47.6189906,0 -52.7492487,47.6190148,0 -52.7492287,47.6190451,0 -52.7491948,47.6190793,0 -52.7491677,47.6191015,0 -52.7491461,47.6191168,0 -52.7490879,47.6191505,0 -52.7489643,47.6192267,0</coordinates>
        </LineString>
      </Placemark>
      <Placemark>
        <styleUrl>#taxiway</styleUrl>
        <LineString>
          <coordinates>-52.7435472,47.614851,0 -52.7434967,47.6147897,0 -52.7434436,47.6147413,0 -52.7433901,47.6147046,0 -52.7433292,47.6146701,0</coordinates>
        </LineString>
      </Placemark>
      <Placemark>
        <name>G</name>
        <styleUrl>#taxiway</styleUrl>
        <LineString>
          <coordinates>-52.743419,47.6152422,0 -52.7425438,47.6157359,0 -52.7420282,47.6160398,0 -52.7416291,47.6162753,0 -52.7407646,47.6167853,0</coordinates>
        </LineString>
      </Placemark>
      <Placemark>
        <name>H</name>
        <styleUrl>#taxiway</styleUrl>
        <LineString>
          <coordinates>-52.7425645,47.6160902,0 -52.7425197,47.6160551,0 -52.7424999,47.6160341,0 -52.7424828,47.6160087,0 -52.7424683,47.6159804,0 -52.7424612,47.6159621,0 -52.7424552,47.6159335,0 -52.7424542,47.6159058,0 -52.7424565,47.6158826,0 -52.7424603,47.6158606,0 -52.7424703,47.6158313,0 -52.7424855,47.6158034,0 -52.7425438,47.6157359,0</coordinates>
        </LineString>
      </Placemark>
      <Placemark>
        <name>H</name>
        <styleUrl>#taxiway</styleUrl>
        <LineString>
          <coordinates>-52.7425645,47.6160902,0 -52.7428743,47.6163259,0</coordinates>
        </LineString>
      </Placemark>
      <Placemark>
        <description>surface: asphalt</description>
        <styleUrl>#taxiway</styleUrl>
        <LineString>
          <coordinates>-52.7463058,47.6211107,0 -52.7462571,47.6211441,0 -52.7462366,47.6211683,0 -52.7462097,47.6212096,0 -52.7461941,47.6212596,0 -52.7461916,47.6213213,0 -52.7462004,47.6213621,0 -52.746212,47.6213974,0 -52.7462259,47.6214233,0 -52.7462329,47.6214345,0 -52.7462422,47.6214452,0 -52.7462541,47.6214569,0 -52.7462955,47.621503,0</coordinates>
        </LineString>
      </Placemark>
      <Placemark>
        <name>J</name>
        <description>surface: asphalt</description>
        <styleUrl>#taxiway</styleUrl>
        <LineString>
          <coordinates>-52.7472093,47.6205822,0 -52.7463058,47.6211107,0</coordinates>
        </LineString>
      </Placemark>
      <Placemark>
        <styleUrl>#taxiway</styleUrl>
        <LineString>
          <coordinates>-52.7473897,47.6198388,0 -52.7473446,47.6197936,0 -52.7473286,47.6197685,0 -52.747311,47.6197352,0 -52.7473008,47.619698,0 -52.747302,47.6196497,0 -52.747308,47.6196109,0 -52.747321,47.6195755,0 -52.7473387,47.6195473,0 -52.7473666,47.6195179,0 -52.7474196,47.619472,0</coordinates>
        </LineString>
      </Placemark>
      <Placemark>
        <name>H</name>
        <styleUrl>#taxiway</styleUrl>
        <LineString>
          <coordinates>-52.7428743,47.6163259,0 -52.7457574,47.6185742,0</coordinates>
        </LineString>
      </Placemark>
      <Placemark>
        <styleUrl>#taxiway</styleUrl>
        <LineString>
          <coordinates>-52.7513089,47.6185793,0 -52.7513374,47.618543,0 -52.7513521,47.6185185,0 -52.7513643,47.6184906,0 -52.7513636,47.6184613,0 -52.751352,47.6184255,0 -52.7510928,47.6181813,0 -52.7512314,47.617515,0</coordinates>
        </LineString>
      </Placemark>
      <Placemark>
        <styleUrl>#taxiway</styleUrl>
        <LineString>
          <coordinates>-52.7554965,47.6152129,0 -52.7555416,47.6152048,0 -52.7555884,47.6152024,0 -52.7556281,47.6152078,0 -52.7556671,47.615222,0 -52.7557056,47.6152462,0 -52.7557878,47.6153136,0 -52.7558043,47.6153453,0 -52.7558098,47.6153751,0 -52.7558076,47.6154024,0 -52.7557938,47.6154268,0 -52.7557755,47.6154482,0 -52.7556727,47.6155003,0 -52.7556183,47.6155024,0 -52.7555899,47.6155023,0 -52.7555604,47.6154974,0 -52.7555346,47.6154887,0 -52.755506,47.6154762,0 -52.7554057,47.615395,0 -52.7553608,47.6153715,0 -52.7553228,47.6153618,0 -52.7552856,47.6153583,0 -52.7552456,47.6153598,0 -52.7552093,47.6153671,0 -52.755177,47.615379,0</coordinates>
        </LineString>
      </Placemark>
      <Placemark>
        <styleUrl>#taxiway</styleUrl>
        <LineString>
          <coordinates>-52.7550788,47.6154264,0 -52.7551218,47.6154177,0 -52.7551822,47.6154183,0 -52.7552254,47.6154266,0 -52.7552543,47.6154357,0 -52.7552829,47.6154529,0 -52.7553669,47.6155279,0 -52.7553856,47.6155526,0 -52.7553938,47.6155769,0 -52.7553954,47.6155994,0 -52.7553826,47.615635,0 -52.7553633,47.6156634,0 -52.755309,47.6156944,0 -52.7552497,47.6157166,0 -52.7551957,47.6157204,0 -52.7551587,47.6157177,0 -52.7551196,47.6157088,0 -52.755086,47.6156944,0 -52.7549668,47.6155988,0 -52.7549191,47.6155806,0 -52.754873,47.6155743,0 -52.7548292,47.6155726,0 -52.754782,47.61558,0</coordinates>
        </LineString>
      </Placemark>
      <Placemark>
        <styleUrl>#taxiway</styleUrl>
        <LineString>
          <coordinates>-52.7546384,47.6156516,0 -52.7546953,47.6156378,0 -52.7547475,47.6156345,0 -52.7547959,47.6156423,0 -52.7548335,47.6156565,0 -52.7548914,47.615694,0 -52.7549414,47.6157425,0 -52.7549622,47.6157755,0 -52.7549717,47.6158144,0 -52.7549723,47.615846,0 -52.7549631,47.6158737,0 -52.7548459,47.6159353,0 -52.7547915,47.6159405,0 -52.7547494,47.6159376,0 -52.7547133,47.6159319,0 -52.7546694,47.6159163,0 -52.754627,47.6158888,0 -52.7545581,47.6158315,0 -52.7545139,47.6158149,0 -52.7544555,47.6158058,0 -52.7544224,47.6158062,0 -52.7543914,47.6158117,0 -52.7543437,47.6158268,0 -52.7542981,47.6158533,0 -52.7539803,47.6159966,0 -52.7539301,47.6160211,0 -52.7538922,47.6160367,0 -52.7538637,47.6160432,0 -52.7538091,47.6160488,0 -52.7537519,47.6160529,0 -52.7536949,47.6160564,0 -52.7536496,47.6160589,0 -52.7536139,47.6160674,0 -52.7535313,47.616112,0 -52.7534405,47.6161872,0 -52.7534286,47.6162094,0 -52.7534225,47.6162509,0 -52.7534322,47.6162824,0 -52.7534441,47.6163043,0 -52.753476,47.6163319,0 -52.7536434,47.6164831,0</coordinates>
        </LineString>
      </Placemark>
      <Placemark>
        <styleUrl>#taxiway</styleUrl>
        <LineString>
          <coordinates>-52.7536949,47.6160564,0 -52.753745,47.616064,0 -52.7537896,47.6160792,0 -52.7538254,47.6161015,0 -52.7538488,47.6161272,0 -52.7538695,47.6161681,0 -52.753874,47.6161928,0 -52.7538733,47.6162548,0 -52.7538667,47.616365,0</coordinates>
        </LineString>
      </Placemark>
      <Placemark>
        <styleUrl>#taxiway</styleUrl>
        <LineString>
          <coordinates>-52.7535395,47.6165648,0 -52.753496,47.6165794,0 -52.7534414,47.6165837,0 -52.7533081,47.6165875,0 -52.7532489,47.6165842,0 -52.7532133,47.6165752,0 -52.7531779,47.6165597,0 -52.7531431,47.616535,0 -52.7531042,47.6164944,0 -52.7530807,47.616464,0 -52.7530822,47.6164383,0 -52.7530956,47.6164114,0 -52.7531251,47.6163852,0 -52.7531736,47.6163593,0 -52.7532089,47.6163448,0 -52.7532442,47.6163367,0 -52.7532803,47.6163365,0 -52.7533148,47.616341,0 -52.753347,47.6163511,0 -52.7535895,47.616513,0</coordinates>
        </LineString>
      </Placemark>
      <Placemark>
        <styleUrl>#taxiway</styleUrl>
        <LineString>
          <coordinates>-52.7532009,47.6170543,0 -52.7531699,47.6170248,0 -52.7531529,47.6169952,0 -52.753145,47.6169753,0 -52.7531461,47.6169425,0 -52.7531555,47.6169167,0 -52.7531769,47.6168876,0 -52.7532135,47.6168611,0 -52.7532697,47.6168392,0 -52.7533497,47.6168223,0 -52.7534379,47.6168024,0 -52.7535834,47.6167757,0 -52.7536138,47.616778,0 -52.753653,47.6167882,0 -52.7536889,47.6168063,0 -52.753761,47.6168491,0</coordinates>
        </LineString>
      </Placemark>
      <Placemark>
        <styleUrl>#taxiway</styleUrl>
        <LineString>
          <coordinates>-52.7394414,47.6249141,0 -52.739454,47.624965,0 -52.7394767,47.6250032,0 -52.7395133,47.6250439,0 -52.7395535,47.6250737,0 -52.7396047,47.6250981,0 -52.7396526,47.6251174,0 -52.7397083,47.6251325,0 -52.7397603,47.6251423,0 -52.7398435,47.6251467,0</coordinates>
        </LineString>
      </Placemark>
      <Placemark>
        <styleUrl>#taxiway</styleUrl>
        <LineString>
          <coordinates>-52.7384983,47.6158532,0 -52.7385838,47.6157818,0 -52.7386306,47.6156916,0 -52.7386326,47.6156411,0 -52.7386121,47.615566,0 -52.7385675,47.6154963,0 -52.7385097,47.6154297,0</coordinates>
        </LineString>
      </Placemark>
      <Placemark>
        <styleUrl>#taxiway</styleUrl>
        <LineString>
          <coordinates>-52.7701261,47.6236997,0 -52.7703287,47.6237233,0 -52.7704727,47.6237692,0 -52.7705611,47.623822,0 -52.7706748,47.6238646,0 -52.7708062,47.6238935,0 -52.7709426,47.6238987,0 -52.771074,47.623885,0 -52.7711902,47.6238561,0 -52.7713089,47.623805,0 -52.7713999,47.6237403,0 -52.7714605,47.6236705,0 -52.7714835,47.6236339,0 -52.7715035,47.6235734,0 -52.7715161,47.6234968,0 -52.7715035,47.6234168,0 -52.7714555,47.6233316,0 -52.7714251,47.623284,0 -52.7706445,47.6233197,0 -52.7705333,47.6233333,0 -52.770402,47.6233759,0 -52.770263,47.6234406,0 -52.7700963,47.6235172,0 -52.7699245,47.6236007,0 -52.769783,47.6236637,0 -52.769682,47.623696,0 -52.769523,47.6237289,0</coordinates>
        </LineString>
      </Placemark>
      <Placemark>
        <styleUrl>#taxiway</styleUrl>
        <LineString>
          <coordinates>-52.7495144,47.6246963,0 -52.7496448,47.6246639,0 -52.74974,47.6246259,0 -52.749821,47.6245807,0 -52.7498739,47.6245214,0 -52.7498915,47.6244311,0 -52.7498915,47.6243646,0 -52.7498541,47.6242739,0</coordinates>
        </LineString>
      </Placemark>
      <Placemark>
        <styleUrl>#taxiway</styleUrl>
        <LineString>
          <coordinates>-52.740105,47.6251647,0 -52.7392633,47.6252064,0 -52.7391109,47.6252346,0 -52.7390078,47.6252773,0 -52.7384237,47.6255503,0 -52.7383251,47.6255866,0 -52.7382282,47.6256033,0 -52.7373973,47.6256461,0 -52.7373412,47.6255771,0 -52.7373094,47.6254834,0 -52.7373075,47.6253923,0 -52.7373481,47.6252813,0 -52.7373809,47.6252368,0 -52.73742,47.6251924,0 -52.7374566,47.6251621,0 -52.7375234,47.6251133,0 -52.7376417,47.6250652,0 -52.7377873,47.6250344,0 -52.7379371,47.6250232,0 -52.7380911,47.62504,0 -52.7382284,47.6250905,0 -52.7383241,47.6251382,0 -52.7384173,47.6251833,0 -52.7384696,47.6252013,0 -52.73851,47.6252094,0</coordinates>
        </LineString>
      </Placemark>
      <Placemark>
        <styleUrl>#taxiway</styleUrl>
        <LineString>
          <coordinates>-52.7393466,47.6160916,0 -52.7392092,47.6160308,0 -52.7391001,47.6160005,0 -52.7390488,47.6159947,0 -52.7389654,47.6159947,0 -52.7388563,47.616012,0 -52.7387771,47.6160365,0 -52.7387215,47.6160683,0 -52.7386637,47.6161202,0 -52.7386295,47.6161692,0 -52.7386038,47.6162384,0 -52.7385968,47.6162978,0</coordinates>
        </LineString>
      </Placemark>
      <Placemark>
        <styleUrl>#taxiway</styleUrl>
        <LineString>
          <coordinates>-52.7385881,47.6162181,0 -52.7385685,47.616167,0 -52.7385275,47.6161229,0 -52.7384589,47.6160719,0 -52.7383801,47.6160394,0 -52.7383004,47.6160208,0 -52.7382184,47.6160145,0 -52.7381325,47.6160171,0 -52.738034,47.6160348,0</coordinates>
        </LineString>
      </Placemark>
      <Placemark>
        <styleUrl>#taxiway</styleUrl>
        <LineString>
          <coordinates>-52.7505873,47.624646,0 -52.7504657,47.624639,0 -52.7503733,47.6246255,0 -52.7503208,47.6246121,0 -52.7502423,47.6245762,0</coordinates>
        </LineString>
      </Placemark>
    </Folder>
    <Folder>
      <name>Aprons</name>
      <Placemark>
        <name>Apron II</name>
        <description>surface: asphalt</description>
        <styleUrl>#apron</styleUrl>
        <Polygon>
          <outerBoundaryIs>
            <LinearRing>
              <coordinates>-52.7356691,47.6227334,0 -52.7357241,47.6232793,0 -52.7357266,47.6233178,0 -52.735759,47.6233159,0 -52.7370989,47.6232354,0 -52.737187,47.6232983,0 -52.7377427,47.6230073,0 -52.7374295,47.6226375,0 -52.73686,47.6172814,0 -52.7367233,47.6172874,0 -52.7362396,47.6173222,0 -52.7352852,47.6173563,0 -52.7353206,47.6176044,0 -52.7349915,47.6176115,0 -52.735001,47.6176896,0 -52.7350286,47.6179157,0 -52.7357872,47.6178809,0 -52.7358459,47.6183615,0 -52.7350681,47.6183886,0 -52.7350865,47.6185297,0 -52.735094,47.6185961,0 -52.7351956,47.618593,0 -52.7352097,47.6187543,0 -52.7360049,47.6187276,0 -52.7360651,47.6191833,0 -52.7359429,47.619184,0 -52.7359789,47.6195535,0 -52.7350656,47.61959,0 -52.7350906,47.6197649,0 -52.7352936,47.6197558,0 -52.7353032,47.6198695,0 -52.735314,47.6200041,0 -52.7359989,47.6199781,0 -52.7360475,47.6205586,0 -52.7354528,47.6205812,0 -52.7354882,47.6208412,0 -52.7349998,47.6208484,0 -52.7343557,47.620889,0 -52.7343645,47.6210308,0 -52.7342616,47.6212165,0 -52.734265,47.6212813,0 -52.7342005,47.6212828,0 -52.734177,47.6212848,0 -52.7341847,47.621375,0 -52.7342089,47.6213739,0 -52.7347893,47.6213457,0 -52.7347665,47.6212229,0 -52.7348036,47.6211341,0 -52.7348972,47.6210631,0 -52.7350246,47.6210225,0 -52.7351305,47.6212407,0 -52.7360602,47.6211992,0 -52.7360619,47.6212167,0 -52.7361338,47.6212135,0 -52.7361786,47.6216679,0 -52.7361555,47.621669,0 -52.7361671,47.6217819,0 -52.7361769,47.6218504,0 -52.7361865,47.6219422,0 -52.7361914,47.6219954,0 -52.7361534,47.6219971,0 -52.7361655,47.6220561,0 -52.7362177,47.6220582,0 -52.7362178,47.622083,0 -52.7362805,47.6226295,0 -52.7356002,47.6226613,0 -52.7356071,47.6227311,0 -52.7356691,47.6227334,0</coordinates>
            </LinearRing>
          </outerBoundaryIs>
        </Polygon>
      </Placemark>
      <Placemark>
        <name>Central De-Icing Facility</name>
        <description>area: yes
surface: asphalt</description>
        <styleUrl>#apron</styleUrl>
        <Polygon>
          <outerBoundaryIs>
            <LinearRing>
              <coordinates>-52.7489883,47.6208497,0 -52.750396,47.6199934,0 -52.7499634,47.6196551,0 -52.7503918,47.6194002,0 -52.7486043,47.6180105,0 -52.7485541,47.6179715,0 -52.7484668,47.617938,0 -52.7479525,47.6179272,0 -52.7467814,47.6186084,0 -52.7466958,47.6186443,0 -52.748851,47.6203358,0 -52.7485542,47.6205058,0 -52.7489883,47.6208497,0</coordinates>
            </LinearRing>
          </outerBoundaryIs>
        </Polygon>
      </Placemark>
      <Placemark>
        <name>Apron I</name>
        <description>surface: asphalt</description>
        <styleUrl>#apron</styleUrl>
        <Polygon>
          <outerBoundaryIs>
            <LinearRing>
              <coordinates>-52.7445954,47.6135201,0 -52.7466161,47.6140502,0 -52.7465679,47.6141596,0 -52.7465101,47.6141495,0 -52.7464334,47.6143085,0 -52.7462073,47.6144806,0 -52.7450694,47.6151183,0 -52.7447687,47.6151523,0 -52.7442506,47.6150995,0 -52.7430451,47.6146958,0 -52.7410036,47.6141457,0 -52.7397737,47.6137956,0 -52.7392778,47.6129215,0 -52.7393782,47.6127806,0 -52.7394749,47.6126422,0 -52.7395011,47.6125968,0 -52.7395618,47.6124916,0 -52.739369,47.6106212,0 -52.7400603,47.6106069,0 -52.7400962,47.6109912,0 -52.741123,47.6109393,0 -52.7415293,47.6117602,0 -52.7414916,47.6118336,0 -52.7416581,47.6121158,0 -52.7413846,47.6121905,0 -52.7413598,47.6121458,0 -52.7413372,47.6121709,0 -52.741334,47.6121818,0 -52.7412621,47.6121994,0 -52.7413031,47.6122685,0 -52.7413187,47.61229,0 -52.741354,47.6122751,0 -52.7414223,47.6123859,0 -52.7413749,47.6123961,0 -52.7414506,47.6125138,0 -52.741491,47.6125035,0 -52.7416059,47.6126965,0 -52.7416834,47.6128294,0 -52.7416431,47.6128386,0 -52.7416931,47.6129169,0 -52.7417394,47.6129027,0 -52.7418185,47.6129888,0 -52.7418738,47.6130341,0 -52.7419333,47.6130819,0 -52.7420065,47.6131247,0 -52.7420811,47.6131667,0 -52.7421735,47.6132049,0 -52.7422314,47.6132286,0 -52.7422726,47.6132658,0 -52.7422887,47.6132495,0 -52.7423133,47.613263,0 -52.7423989,47.6132865,0 -52.7424082,47.6132701,0 -52.7424984,47.6132982,0 -52.7425395,47.6132387,0 -52.7431,47.6133922,0 -52.7430778,47.6134335,0 -52.7431503,47.6134542,0 -52.7431758,47.6134572,0 -52.7431994,47.6134193,0 -52.7437195,47.6135708,0 -52.7436978,47.6136106,0 -52.7437132,47.6136147,0 -52.7437799,47.613633,0 -52.7438535,47.6135143,0 -52.7439603,47.6135464,0 -52.7440446,47.6135666,0 -52.7441237,47.6135822,0 -52.7442167,47.6135946,0 -52.7442628,47.6135987,0 -52.744316,47.6135971,0 -52.7443167,47.613622,0 -52.7443901,47.6136149,0 -52.7443334,47.6136524,0 -52.7444442,47.613642,0 -52.7444364,47.6135922,0 -52.7444934,47.6135848,0 -52.7445549,47.6135758,0 -52.7445954,47.6135201,0</coordinates>
            </LinearRing>
          </outerBoundaryIs>
        </Polygon>
      </Placemark>
      <Placemark>
        <name>Glidepath Runway 16</name>
        <description>description: Part of ILS system for the runway.</description>
        <styleUrl>#apron</styleUrl>
        <Polygon>
          <outerBoundaryIs>
            <LinearRing>
              <coordinates>-52.7510411,47.6241014,0 -52.7502594,47.6234606,0 -52.7508432,47.6231371,0 -52.7516248,47.6237779,0 -52.7510411,47.6241014,0</coordinates>
            </LinearRing>
          </outerBoundaryIs>
        </Polygon>
      </Placemark>
      <Placemark>
        <name>V</name>
        <styleUrl>#apron</styleUrl>
        <Polygon>
          <outerBoundaryIs>
            <LinearRing>
              <coordinates>-52.7507585,47.6183218,0 -52.7508727,47.6182602,0 -52.7509503,47.6182672,0 -52.7509813,47.6182936,0 -52.7510013,47.618329,0 -52.7510209,47.6183867,0 -52.7510301,47.6184334,0 -52.7510325,47.6184454,0 -52.7510352,47.6184633,0 -52.752076,47.6179384,0 -52.7518778,47.6178551,0 -52.7517918,47.617786,0 -52.752076,47.6176482,0 -52.7515784,47.6171988,0 -52.7507253,47.6176293,0 -52.7505317,47.6174559,0 -52.7504925,47.6174732,0 -52.7502162,47.6176087,0 -52.7504147,47.6177812,0 -52.7502172,47.6178787,0 -52.7507585,47.6183218,0</coordinates>
            </LinearRing>
          </outerBoundaryIs>
        </Polygon>
      </Placemark>
    </Folder>
    <Folder>
      <name>Parking &amp; Gates</name>
      <Placemark>
        <styleUrl>#holding</styleUrl>
        <Point>
          <coordinates>-52.7393782,47.6127806,0</coordinates>
        </Point>
      </Placemark>
      <Placemark>
        <description>holding_position:type: runway</description>
        <styleUrl>#holding</styleUrl>
        <Point>
          <coordinates>-52.7368195,47.6119063,0</coordinates>
        </Point>
      </Placemark>
      <Placemark>
        <name>1</name>
        <styleUrl>#parking</styleUrl>
        <Point>
          <coordinates>-52.7448991,47.6139995,0</coordinates>
        </Point>
      </Placemark>
      <Placemark>
        <name>2</name>
        <styleUrl>#parking</styleUrl>
        <Point>
          <coordinates>-52.7441144,47.6139735,0</coordinates>
        </Point>
      </Placemark>
      <Placemark>
        <name>3</name>
        <styleUrl>#parking</styleUrl>
        <Point>
          <coordinates>-52.7434101,47.6138455,0</coordinates>
        </Point>
      </Placemark>
      <Placemark>
        <name>4</name>
        <styleUrl>#parking</styleUrl>
        <Point>
          <coordinates>-52.742733,47.6136392,0</coordinates>
        </Point>
      </Placemark>
      <Placemark>
        <name>5</name>
        <styleUrl>#parking</styleUrl>
        <Point>
          <coordinates>-52.7421798,47.6134875,0</coordinates>
        </Point>
      </Placemark>
      <Placemark>
        <name>Gate 1</name>
        <styleUrl>#gate</styleUrl>
        <Point>
          <coordinates>-52.7443685,47.6135667,0</coordinates>
        </Point>
      </Placemark>
      <Placemark>
        <name>2</name>
        <styleUrl>#gate</styleUrl>
        <Point>
          <coordinates>-52.7437416,47.613599,0</coordinates>
        </Point>
      </Placemark>
      <Placemark>
        <name>3</name>
        <styleUrl>#gate</styleUrl>
        <Point>
          <coordinates>-52.7431302,47.6133655,0</coordinates>
        </Point>
      </Placemark>
      <Placemark>
        <name>6</name>
        <styleUrl>#gate</styleUrl>
        <Point>
          <coordinates>-52.7424713,47.6131644,0</coordinates>
        </Point>
      </Placemark>
      <Placemark>
        <name>7A</name>
        <styleUrl>#gate</styleUrl>
        <Point>
          <coordinates>-52.7424844,47.6131378,0</coordinates>
        </Point>
      </Placemark>
      <Placemark>
        <name>8A</name>
        <styleUrl>#gate</styleUrl>
        <Point>
          <coordinates>-52.7423529,47.6131128,0</coordinates>
        </Point>
      </Placemark>
      <Placemark>
        <name>9A</name>
        <styleUrl>#gate</styleUrl>
        <Point>
          <coordinates>-52.7423434,47.6131426,0</coordinates>
        </Point>
      </Placemark>
      <Placemark>
        <name>7</name>
        <styleUrl>#gate</styleUrl>
        <Point>
          <coordinates>-52.7418164,47.612948,0</coordinates>
        </Point>
      </Placemark>
      <Placemark>
        <name>8</name>
        <styleUrl>#gate</styleUrl>
        <Point>
          <coordinates>-52.7416369,47.6127123,0</coordinates>
        </Point>
      </Placemark>
      <Placemark>
        <name>9</name>
        <styleUrl>#gate</styleUrl>
        <Point>
          <coordinates>-52.7415232,47.612557,0</coordinates>
        </Point>
      </Placemark>
      <Placemark>
        <name>10A</name>
        <styleUrl>#gate</styleUrl>
        <Point>
          <coordinates>-52.7414703,47.6124445,0</coordinates>
        </Point>
      </Placemark>
      <Placemark>
        <name>11A</name>
        <styleUrl>#gate</styleUrl>
        <Point>
          <coordinates>-52.7414494,47.6124197,0</coordinates>
        </Point>
      </Placemark>
      <Placemark>
        <name>12A</name>
        <styleUrl>#gate</styleUrl>
        <Point>
          <coordinates>-52.7414302,47.6123937,0</coordinates>
        </Point>
      </Placemark>
      <Placemark>
        <name>10</name>
        <styleUrl>#gate</styleUrl>
        <Point>
          <coordinates>-52.7413218,47.6122634,0</coordinates>
        </Point>
      </Placemark>
      <Placemark>
        <name>11</name>
        <styleUrl>#gate</styleUrl>
        <Point>
          <coordinates>-52.741334,47.6121818,0</coordinates>
        </Point>
      </Placemark>
      <Placemark>
        <name>Bay 4</name>
        <styleUrl>#parking</styleUrl>
        <Point>
          <coordinates>-52.7492187,47.6197085,0</coordinates>
        </Point>
      </Placemark>
      <Placemark>
        <description>direction: backward</description>
        <styleUrl>#holding</styleUrl>
        <Point>
          <coordinates>-52.7374353,47.6232092,0</coordinates>
        </Point>
      </Placemark>
      <Placemark>
        <name>Bay 3</name>
        <styleUrl>#parking</styleUrl>
        <Point>
          <coordinates>-52.7493742,47.6192536,0</coordinates>
        </Point>
      </Placemark>
      <Placemark>
        <styleUrl>#holding</styleUrl>
        <Point>
          <coordinates>-52.7485729,47.620104,0</coordinates>
        </Point>
      </Placemark>
      <Placemark>
        <name>Bay 4</name>
        <styleUrl>#parking</styleUrl>
        <Point>
          <coordinates>-52.7487829,47.6199883,0</coordinates>
        </Point>
      </Placemark>
      <Placemark>
        <styleUrl>#holding</styleUrl>
        <Point>
          <coordinates>-52.7483354,47.619915,0</coordinates>
        </Point>
      </Placemark>
      <Placemark>
        <name>Bay 3</name>
        <styleUrl>#parking</styleUrl>
        <Point>
          <coordinates>-52.7485466,47.6198443,0</coordinates>
        </Point>
      </Placemark>
      <Placemark>
        <name>Bay 2</name>
        <styleUrl>#parking</styleUrl>
        <Point>
          <coordinates>-52.7487268,47.6193281,0</coordinates>
        </Point>
      </Placemark>
      <Placemark>
        <styleUrl>#holding</styleUrl>
        <Point>
          <coordinates>-52.7469065,47.6188147,0</coordinates>
        </Point>
      </Placemark>
      <Placemark>
        <styleUrl>#holding</styleUrl>
        <Point>
          <coordinates>-52.7457574,47.6185742,0</coordinates>
        </Point>
      </Placemark>
      <Placemark>
        <description>direction: forward
holding_position:type: runway</description>
        <styleUrl>#holding</styleUrl>
        <Point>
          <coordinates>-52.7472093,47.6205822,0</coordinates>
        </Point>
      </Placemark>
      <Placemark>
        <styleUrl>#holding</styleUrl>
        <Point>
          <coordinates>-52.7476206,47.6193564,0</coordinates>
        </Point>
      </Placemark>
      <Placemark>
        <styleUrl>#holding</styleUrl>
        <Point>
          <coordinates>-52.7505496,47.6189691,0</coordinates>
        </Point>
      </Placemark>
      <Placemark>
        <styleUrl>#holding</styleUrl>
        <Point>
          <coordinates>-52.7428743,47.6163259,0</coordinates>
        </Point>
      </Placemark>
      <Placemark>
        <description>direction: backward
holding_position:type: runway</description>
        <styleUrl>#holding</styleUrl>
        <Point>
          <coordinates>-52.7369489,47.6166021,0</coordinates>
        </Point>
      </Placemark>
      <Placemark>
        <description>direction: forward</description>
        <styleUrl>#holding</styleUrl>
        <Point>
          <coordinates>-52.7406565,47.6251078,0</coordinates>
        </Point>
      </Placemark>
      <Placemark>
        <description>direction: forward
holding_position:type: runway</description>
        <styleUrl>#holding</styleUrl>
        <Point>
          <coordinates>-52.7356072,47.6114602,0</coordinates>
        </Point>
      </Placemark>
      <Placemark>
        <description>direction: forward
holding_position:type: runway</description>
        <styleUrl>#holding</styleUrl>
        <Point>
          <coordinates>-52.7416291,47.6162753,0</coordinates>
        </Point>
      </Placemark>
      <Placemark>
        <name>Bay 2</name>
        <styleUrl>#parking</styleUrl>
        <Point>
          <coordinates>-52.7483094,47.619618,0</coordinates>
        </Point>
      </Placemark>
      <Placemark>
        <styleUrl>#holding</styleUrl>
        <Point>
          <coordinates>-52.7480796,47.6197393,0</coordinates>
        </Point>
      </Placemark>
      <Placemark>
        <name>Bay 1</name>
        <styleUrl>#parking</styleUrl>
        <Point>
          <coordinates>-52.7478311,47.6192509,0</coordinates>
        </Point>
      </Placemark>
      <Placemark>
        <name>Bay 1</name>
        <styleUrl>#parking</styleUrl>
        <Point>
          <coordinates>-52.7482388,47.6189624,0</coordinates>
        </Point>
      </Placemark>
      <Placemark>
        <description>direction: backward
holding_position:type: runway</description>
        <styleUrl>#holding</styleUrl>
        <Point>
          <coordinates>-52.7482002,47.6247612,0</coordinates>
        </Point>
      </Placemark>
      <Placemark>
        <description>direction: forward
holding_position:type: runway</description>
        <styleUrl>#holding</styleUrl>
        <Point>
          <coordinates>-52.7383512,47.6139051,0</coordinates>
        </Point>
      </Placemark>
      <Placemark>
        <description>direction: backward
holding_position:type: runway</description>
        <styleUrl>#holding</styleUrl>
        <Point>
          <coordinates>-52.7488798,47.6235149,0</coordinates>
        </Point>
      </Placemark>
      <Placemark>
        <description>direction: forward
holding_position:type: runway</description>
        <styleUrl>#holding</styleUrl>
        <Point>
          <coordinates>-52.7541623,47.6244746,0</coordinates>
        </Point>
      </Placemark>
      <Placemark>
        <description>direction: backward
holding_position:type: runway</description>
        <styleUrl>#holding</styleUrl>
        <Point>
          <coordinates>-52.7386645,47.6169868,0</coordinates>
        </Point>
      </Placemark>
      <Placemark>
        <description>direction: forward
holding_position:type: runway</description>
        <styleUrl>#holding</styleUrl>
        <Point>
          <coordinates>-52.7392716,47.6232323,0</coordinates>
        </Point>
      </Placemark>
    </Folder>
  </Document>
</kml>
